KUIPER-00144            
1 67133U 25301A   26003.57388773  .00038262  00000+0  10861-2 0  9998
2 67133  51.8708  19.8370 0006457 145.2927 214.8482 15.35817413  3720
KUIPER-00164            
1 67134U 25301B   26003.50058678  .00047007  00000+0  13044-2 0  9993
2 67134  51.8731  20.0982 0003119 124.3396 235.7885 15.36444130  3890
KUIPER-00175            
1 67135U 25301C   26003.49481552  .00052196  00000+0  14222-2 0  9997
2 67135  51.8746  20.0558 0002837  78.6705 281.4601 15.36965885  3784
KUIPER-00179            
1 67136U 25301D   26003.56387552  .00032407  00000+0  90141-3 0  9999
2 67136  51.8746  19.7702 0003235 107.0693 253.0648 15.36544506  3900
KUIPER-00181            
1 67137U 25301E   26003.52125825  .00039791  00000+0  11665-2 0  9995
2 67137  51.8642  20.2267 0010542 170.1341 189.9853 15.34751988  3872
KUIPER-00183            
1 67138U 25301F   26003.52492081  .00014272  00000+0  43059-3 0  9997
2 67138  51.8615  20.2469 0011258 171.6018 188.5158 15.34481676  3887
KUIPER-00184            
1 67139U 25301G   26003.58546690  .00008779  00000+0  26685-3 0  9991
2 67139  51.8631  19.9059 0009029 167.0016 193.1204 15.34804713  4006
KUIPER-00186            
1 67140U 25301H   26003.57855323  .00043938  00000+0  12571-2 0  9992
2 67140  51.8689  19.8658 0007933 155.2022 204.9347 15.35494557  3722
KUIPER-00187            
1 67141U 25301J   26003.56924310  .00054111  00000+0  15123-2 0  9996
2 67141  51.8720  19.8073 0005067 138.0999 222.0375 15.36151136  3724
KUIPER-00188            
1 67142U 25301K   26003.57964844  .00040556  00000+0  11662-2 0  9996
2 67142  51.8700  19.8739 0007868 162.6551 197.4705 15.35375273  3721
KUIPER-00191            
1 67143U 25301L   26003.57720837  .00038422  00000+0  11001-2 0  9995
2 67143  51.8679  19.8570 0006914 157.1543 202.9752 15.35540582  3755
KUIPER-00196            
1 67144U 25301M   26003.56704788  .00046333  00000+0  12906-2 0  9997
2 67144  51.8738  19.7921 0003968 117.0044 243.1348 15.36330257  3720
